LEMUR-2-ALISIA          
1 62706U 25009DB  26186.17881244  .00015623  00000+0  11618-2 0  9990
2 62706  97.6947 268.2261 0003293 161.8369 198.2974 15.03062515102868
LEMUR-2-ROUNDTRIPPER    
1 62711U 25009DG  26186.19100505  .00016840  00000+0  12174-2 0  9992
2 62711  97.7221 268.8463 0004579  87.8506 272.3244 15.04109103 80335
LEMUR-2-MYNAMEISJEFF    
1 62712U 25009DH  26186.18943619  .00016572  00000+0  11985-2 0  9994
2 62712  97.7271 269.2366 0003623 121.7558 238.4021 15.04101211 80330
LEMUR-2-LEIA-PHILIP     
1 63246U 25052AN  26186.17975770  .00002658  00000+0  23372-3 0  9991
2 63246  97.6815  77.8260 0004674 146.3902 213.7618 14.97370481 71364
LEMUR-2-LIA-MARTIN      
1 63248U 25052AQ  26186.17843433  .00009021  00000+0  76893-3 0  9990
2 63248  97.6859  78.3261 0005005 115.6162 244.5578 14.97963907 71376
LEMUR-2-DELOITTE-1      
1 63259U 25052BB  26186.15727117  .00006543  00000+0  56264-3 0  9996
2 63259  97.6886  78.6371 0002303  65.5807 294.5656 14.97733851 71386
LEMUR-2-EMERSONROSE     
1 63261U 25052BD  26185.64755792  .00007171  00000+0  59297-3 0  9999
2 63261  97.6866  78.7251 0002611  75.3516 284.7996 14.99220237 71359
LEMUR-2-MARACHE-FRAN    
1 63262U 25052BE  26185.94432324  .00008595  00000+0  69056-3 0  9991
2 63262  97.6877  79.3717 0004365 301.4410  58.6386 15.00265967 71421
LEMUR-2-THEFALCONER     
1 63264U 25052BG  26184.98357027  .00005402  00000+0  46822-3 0  9992
2 63264  97.6840  77.0825 0001078  27.2576 332.8702 14.97503207 71204
LEMUR-2-UNTITLED-SC     
1 63351U 25061A   26186.00520406  .00005692  00000+0  31952-3 0  9996
2 63351  97.5650 161.2388 0018113 198.3571 161.7008 15.13600053 70283
LEMUR-2-ESPERANZA       
1 63352U 25061B   26186.24567557  .00006901  00000+0  38548-3 0  9993
2 63352  97.5655 161.5748 0017763 196.4356 163.6302 15.13702155 70321
LEMUR-2-KREMPEL-BRO2    
1 63353U 25061C   26186.00309338  .00005664  00000+0  31318-3 0  9992
2 63353  97.5704 161.8905 0018879 190.0662 170.0194 15.14131233 70307
LEMUR-2-THERMORAPTOR    
1 63354U 25061D   26186.18245637  .00005102  00000+0  28185-3 0  9998
2 63354  97.5707 162.1478 0018660 188.0810 172.0124 15.14215337 70336
LEMUR-2-NEUROSPICY      
1 63355U 25061E   26185.88844190  .00005998  00000+0  32991-3 0  9997
2 63355  97.5633 161.4679 0016383 192.3209 167.7625 15.14329215 70293
LEMUR-2-TILLINFINITY    
1 63356U 25061F   26186.18108977  .00005138  00000+0  27837-3 0  9997
2 63356  97.5620 162.0619 0018006 179.3699 180.7559 15.14916489 70367
LEMUR-2-KREMPEL-BRO1    
1 63357U 25061G   26185.89262363  .00005956  00000+0  32377-3 0  9998
2 63357  97.5621 161.6860 0018573 182.0507 178.0652 15.14720504 70310
LEMUR-2-LANGER2SPACE    
1 63358U 25061H   26185.98874644  .00005259  00000+0  28904-3 0  9997
2 63358  97.5628 161.5885 0016329 189.9761 170.1149 15.14416285 70311
LEMUR-2-BALTO           
1 63395U 25052BH  26185.66217406  .00010364  00000+0  83082-3 0  9991
2 63395  97.6925  79.0708 0005905   8.0852 352.0466 15.00290454 71384
LEMUR-2-KRISH           
1 64561U 25135AK  26185.59529711  .00009848  00000+0  87398-3 0  9995
2 64561  97.7757 300.3533 0001574 105.0164 255.1231 14.96375761 56523
LEMUR-2-HUBBLE-4        
1 64565U 25135AP  26186.02563416  .00001827  00000+0  17822-3 0  9992
2 64565  97.7713 299.7220 0001743 192.8987 167.2189 14.93666001 56531
LEMUR-2-SEJONG-2        
1 64586U 25135BL  26186.28812383  .00006132  00000+0  53965-3 0  9995
2 64586  97.7715 301.1878 0002944 263.4009  96.6877 14.96863025 56657
LEMUR-2-HUBBLE-5        
1 64840U 25135BT  26185.30141940  .00001449  00000+0  14066-3 0  9999
2 64840  97.7732 299.6635 0004096 284.2668  75.8097 14.94188176 56460
LEMUR-2-KARENDARRELL    
1 64841U 25135BU  26185.25957144  .00010926  00000+0  87289-3 0  9992
2 64841  97.7700 301.4418 0011308 140.0466 220.1592 15.00374837 56572
LEMUR-2-LUCILLE-ROSE    
1 65403U 25135BV  26185.96659510  .00013342  00000+0  10633-2 0  9994
2 65403  97.7728 302.1821 0013558 220.7939 139.2270 15.00398001 51301
LEMUR-2-AFFIE-WAUWIE    
1 66295U 25248C   26185.84427147  .00041727  00000+0  15036-2 0  9995
2 66295  45.3925  19.2757 0008299 197.3021 162.7586 15.27933670 37299
LEMUR-2-DEANANDMAEVE    
1 66678U 25276N   26186.15689710  .00011857  00000+0  55357-3 0  9994
2 66678  97.4199 259.3362 0004313 301.8123  58.2692 15.19969748 33145
LEMUR-2-STAS-GORBUK     
1 66686U 25276W   26186.17573863  .00009785  00000+0  46266-3 0  9992
2 66686  97.4234 259.4079 0003518 300.0952  59.9934 15.19585314 33147
LEMUR-2-TEODOR          
1 66768U 25276DG  26186.13977473  .00010254  00000+0  46171-3 0  9992
2 66768  97.4141 259.6316 0002349  98.2371 261.9131 15.21260583 33171
LEMUR-2-LAILA           
1 66776U 25276DQ  26186.17683098  .00009779  00000+0  43762-3 0  9995
2 66776  97.4164 259.8002 0002870 109.5812 250.5734 15.21485303 33187
